2023-104A               
1 57424U 23104A   26065.78279804  .00015492  00000+0  48200-3 0  9993
2 57424  97.2792 135.5625 0009333 122.1915 238.0234 15.33350758146346
STARLINK-31786          
1 59771U 24091U   26068.30985901 -.00000558  00000+0 -67258-5 0  9994
2 59771  53.1616  28.8329 0001242  65.6033 294.5097 15.30193136102941
